{"fetched_at":"2026-03-29T16:36:15Z","count":15609,"tles":[{"name":"KUIPER-00127","line1":"1 65956U 25228K   26087.77746755  .00002845  00000+0  43669-3 0  9990","line2":"2 65956  51.8991 268.1005 0001041 255.3297 104.7548 14.76331919 26176","category":"Other"}]}